CCSDS_OMM_VERS = 2.0
CREATION_DATE  = 
ORIGINATOR     = 

OBJECT_NAME    = QIANFAN 18P
OBJECT_ID      = 2025-233P
CENTER_NAME    = EARTH
REF_FRAME      = TEME
TIME_SYSTEM    = UTC
MEAN_ELEMENT_THEORY = SGP/SGP4

EPOCH          = 2025-10-29T23:16:46.374816
MEAN_MOTION    = 14.26259269
ECCENTRICITY   = .00148869
INCLINATION    = 88.9942
RA_OF_ASC_NODE = 67.0692
ARG_OF_PERICENTER = 173.2220
MEAN_ANOMALY   = 186.9178

EPHEMERIS_TYPE = 0
CLASSIFICATION_TYPE = U
NORAD_CAT_ID   = 66046
ELEMENT_SET_NO = 999
REV_AT_EPOCH   = 180
BSTAR          = .3038034E-3
MEAN_MOTION_DOT = .743E-5
MEAN_MOTION_DDOT = 0

CCSDS_OMM_VERS = 2.0
CREATION_DATE  = 
ORIGINATOR     = 

OBJECT_NAME    = QIANFAN 18Q
OBJECT_ID      = 2025-233Q
CENTER_NAME    = EARTH
REF_FRAME      = TEME
TIME_SYSTEM    = UTC
MEAN_ELEMENT_THEORY = SGP/SGP4

EPOCH          = 2025-10-29T23:16:35.557536
MEAN_MOTION    = 14.26318019
ECCENTRICITY   = .0015067
INCLINATION    = 88.9942
RA_OF_ASC_NODE = 67.0691
ARG_OF_PERICENTER = 173.3222
MEAN_ANOMALY   = 186.8176

EPHEMERIS_TYPE = 0
CLASSIFICATION_TYPE = U
NORAD_CAT_ID   = 66047
ELEMENT_SET_NO = 999
REV_AT_EPOCH   = 180
BSTAR          = .35655832E-3
MEAN_MOTION_DOT = .871E-5
MEAN_MOTION_DDOT = 0

CCSDS_OMM_VERS = 2.0
CREATION_DATE  = 
ORIGINATOR     = 

OBJECT_NAME    = QIANFAN 18R
OBJECT_ID      = 2025-233R
CENTER_NAME    = EARTH
REF_FRAME      = TEME
TIME_SYSTEM    = UTC
MEAN_ELEMENT_THEORY = SGP/SGP4

EPOCH          = 2025-10-29T23:16:31.442304
MEAN_MOTION    = 14.26301185
ECCENTRICITY   = .00149508
INCLINATION    = 88.9943
RA_OF_ASC_NODE = 67.0692
ARG_OF_PERICENTER = 173.0182
MEAN_ANOMALY   = 187.1223

EPHEMERIS_TYPE = 0
CLASSIFICATION_TYPE = U
NORAD_CAT_ID   = 66048
ELEMENT_SET_NO = 999
REV_AT_EPOCH   = 180
BSTAR          = .24367561E-3
MEAN_MOTION_DOT = .6E-5
MEAN_MOTION_DDOT = 0

CCSDS_OMM_VERS = 2.0
CREATION_DATE  = 
ORIGINATOR     = 

OBJECT_NAME    = QIANFAN 18S
OBJECT_ID      = 2025-233S
CENTER_NAME    = EARTH
REF_FRAME      = TEME
TIME_SYSTEM    = UTC
MEAN_ELEMENT_THEORY = SGP/SGP4

EPOCH          = 2025-10-29T23:16:24.792096
MEAN_MOTION    = 14.26330131
ECCENTRICITY   = .00157499
INCLINATION    = 88.9942
RA_OF_ASC_NODE = 67.0691
ARG_OF_PERICENTER = 171.1650
MEAN_ANOMALY   = 188.9824

EPHEMERIS_TYPE = 0
CLASSIFICATION_TYPE = U
NORAD_CAT_ID   = 66049
ELEMENT_SET_NO = 999
REV_AT_EPOCH   = 180
BSTAR          = .28465216E-3
MEAN_MOTION_DOT = .699E-5
MEAN_MOTION_DDOT = 0

CCSDS_OMM_VERS = 2.0
CREATION_DATE  = 
ORIGINATOR     = 

OBJECT_NAME    = QIANFAN 18T
OBJECT_ID      = 2025-233T
CENTER_NAME    = EARTH
REF_FRAME      = TEME
TIME_SYSTEM    = UTC
MEAN_ELEMENT_THEORY = SGP/SGP4

EPOCH          = 2025-10-29T23:16:05.649312
MEAN_MOTION    = 14.26507388
ECCENTRICITY   = .00153089
INCLINATION    = 88.9941
RA_OF_ASC_NODE = 67.0690
ARG_OF_PERICENTER = 171.9479
MEAN_ANOMALY   = 188.1964

EPHEMERIS_TYPE = 0
CLASSIFICATION_TYPE = U
NORAD_CAT_ID   = 66050
ELEMENT_SET_NO = 999
REV_AT_EPOCH   = 180
BSTAR          = .28942964E-3
MEAN_MOTION_DOT = .712E-5
MEAN_MOTION_DDOT = 0

CCSDS_OMM_VERS = 2.0
CREATION_DATE  = 
ORIGINATOR     = 

OBJECT_NAME    = CZ-6A R/B
OBJECT_ID      = 2025-233U
CENTER_NAME    = EARTH
REF_FRAME      = TEME
TIME_SYSTEM    = UTC
MEAN_ELEMENT_THEORY = SGP/SGP4

EPOCH          = 2025-10-29T23:33:03.381696
MEAN_MOTION    = 14.57006867
ECCENTRICITY   = .00861329
INCLINATION    = 89.0280
RA_OF_ASC_NODE = 67.0081
ARG_OF_PERICENTER = 76.0859
MEAN_ANOMALY   = 284.9913

EPHEMERIS_TYPE = 0
CLASSIFICATION_TYPE = U
NORAD_CAT_ID   = 66051
ELEMENT_SET_NO = 999
REV_AT_EPOCH   = 184
BSTAR          = .17269218E-4
MEAN_MOTION_DOT = .101E-5
MEAN_MOTION_DDOT = 0

CCSDS_OMM_VERS = 2.0
CREATION_DATE  = 
ORIGINATOR     = 

OBJECT_NAME    = 2025-234A
OBJECT_ID      = 2025-234A
CENTER_NAME    = EARTH
REF_FRAME      = TEME
TIME_SYSTEM    = UTC
MEAN_ELEMENT_THEORY = SGP/SGP4

EPOCH          = 2025-10-31T14:52:04.202976
MEAN_MOTION    = 15.22129463
ECCENTRICITY   = .0014403
INCLINATION    = 97.4621
RA_OF_ASC_NODE = 10.1900
ARG_OF_PERICENTER = 242.4228
MEAN_ANOMALY   = 117.5546

EPHEMERIS_TYPE = 0
CLASSIFICATION_TYPE = U
NORAD_CAT_ID   = 66053
ELEMENT_SET_NO = 999
REV_AT_EPOCH   = 190
BSTAR          = .14975E-2
MEAN_MOTION_DOT = .34476E-3
MEAN_MOTION_DDOT = 0

CCSDS_OMM_VERS = 2.0
CREATION_DATE  = 
ORIGINATOR     = 

OBJECT_NAME    = 2025-234B
OBJECT_ID      = 2025-234B
CENTER_NAME    = EARTH
REF_FRAME      = TEME
TIME_SYSTEM    = UTC
MEAN_ELEMENT_THEORY = SGP/SGP4

EPOCH          = 2025-10-31T14:59:13.911648
MEAN_MOTION    = 15.21111726
ECCENTRICITY   = .0013811
INCLINATION    = 97.5048
RA_OF_ASC_NODE = 10.2472
ARG_OF_PERICENTER = 234.6741
MEAN_ANOMALY   = 125.3204

EPHEMERIS_TYPE = 0
CLASSIFICATION_TYPE = U
NORAD_CAT_ID   = 66054
ELEMENT_SET_NO = 999
REV_AT_EPOCH   = 190
BSTAR          = .4276E-3
MEAN_MOTION_DOT = .947E-4
MEAN_MOTION_DDOT = 0

CCSDS_OMM_VERS = 2.0
CREATION_DATE  = 
ORIGINATOR     = 

OBJECT_NAME    = 2025-234C
OBJECT_ID      = 2025-234C
CENTER_NAME    = EARTH
REF_FRAME      = TEME
TIME_SYSTEM    = UTC
MEAN_ELEMENT_THEORY = SGP/SGP4

EPOCH          = 2025-10-31T14:58:04.867680
MEAN_MOTION    = 15.21286571
ECCENTRICITY   = .0014456
INCLINATION    = 97.4573
RA_OF_ASC_NODE = 10.1770
ARG_OF_PERICENTER = 236.8619
MEAN_ANOMALY   = 123.1230

EPHEMERIS_TYPE = 0
CLASSIFICATION_TYPE = U
NORAD_CAT_ID   = 66055
ELEMENT_SET_NO = 999
REV_AT_EPOCH   = 190
BSTAR          = .32146E-3
MEAN_MOTION_DOT = .7139E-4
MEAN_MOTION_DDOT = 0

CCSDS_OMM_VERS = 2.0
CREATION_DATE  = 
ORIGINATOR     = 

OBJECT_NAME    = 2025-234D
OBJECT_ID      = 2025-234D
CENTER_NAME    = EARTH
REF_FRAME      = TEME
TIME_SYSTEM    = UTC
MEAN_ELEMENT_THEORY = SGP/SGP4

EPOCH          = 2025-10-31T14:57:08.088192
MEAN_MOTION    = 15.21560499
ECCENTRICITY   = .0014574
INCLINATION    = 97.4551
RA_OF_ASC_NODE = 10.1744
ARG_OF_PERICENTER = 235.5444
MEAN_ANOMALY   = 124.4415

EPHEMERIS_TYPE = 0
CLASSIFICATION_TYPE = U
NORAD_CAT_ID   = 66056
ELEMENT_SET_NO = 999
REV_AT_EPOCH   = 189
BSTAR          = .10505E-2
MEAN_MOTION_DOT = .2373E-3
MEAN_MOTION_DDOT = 0

CCSDS_OMM_VERS = 2.0
CREATION_DATE  = 
ORIGINATOR     = 

OBJECT_NAME    = 2025-234E
OBJECT_ID      = 2025-234E
CENTER_NAME    = EARTH
REF_FRAME      = TEME
TIME_SYSTEM    = UTC
MEAN_ELEMENT_THEORY = SGP/SGP4

EPOCH          = 2025-10-22T03:39:05.023008
MEAN_MOTION    = 15.21126112
ECCENTRICITY   = .00221527
INCLINATION    = 97.5441
RA_OF_ASC_NODE = 0.7365
ARG_OF_PERICENTER = 241.6098
MEAN_ANOMALY   = 118.2904

EPHEMERIS_TYPE = 0
CLASSIFICATION_TYPE = U
NORAD_CAT_ID   = 66057
ELEMENT_SET_NO = 999
REV_AT_EPOCH   = 46
BSTAR          = .33848292E-3
MEAN_MOTION_DOT = .7512E-4
MEAN_MOTION_DDOT = 0

CCSDS_OMM_VERS = 2.0
CREATION_DATE  = 
ORIGINATOR     = 

OBJECT_NAME    = STARLINK-35552
OBJECT_ID      = 2025-235A
CENTER_NAME    = EARTH
REF_FRAME      = TEME
TIME_SYSTEM    = UTC
MEAN_ELEMENT_THEORY = SGP/SGP4

EPOCH          = 2025-10-31T15:06:14.048064
MEAN_MOTION    = 15.82303860
ECCENTRICITY   = .0001868
INCLINATION    = 53.1503
RA_OF_ASC_NODE = 129.6068
ARG_OF_PERICENTER = 358.8952
MEAN_ANOMALY   = 1.2067

EPHEMERIS_TYPE = 0
CLASSIFICATION_TYPE = U
NORAD_CAT_ID   = 66058
ELEMENT_SET_NO = 999
REV_AT_EPOCH   = 309
BSTAR          = .69725E-4
MEAN_MOTION_DOT = .14015E-3
MEAN_MOTION_DDOT = 0

